     2.10           G: GLONASS NAV DATA                     RINEX VERSION / TYPE
teqc  2015Jun23                         20210817 01:25:48UTCPGM / RUN BY / DATE
Linux 2.4.21-27.ELsmp|Opteron|gcc -static|Linux x86_64|=+   COMMENT
  2021     7    24    5.587935447693D-09                    CORR TO SYSTEM TIME
                                                            END OF HEADER
15 21  7 25  2 15  0.0 1.025032252073D-04-0.000000000000D+00 7.200000000000D+03
   -6.195182128906D+03 2.576045989990D-01-2.793967723846D-09 0.000000000000D+00
    2.367319921875D+04-9.621067047119D-01-9.313225746155D-10 0.000000000000D+00
   -7.167312011719D+03-3.388661384583D+00 1.862645149231D-09 0.000000000000D+00
 4 21  7 25  2 15  0.0 9.731203317642D-05 1.818989403546D-12 7.200000000000D+03
   -1.481886474609D+04-1.871026039124D+00-2.793967723846D-09 0.000000000000D+00
    1.407450195312D+04 9.477930068970D-01 0.000000000000D+00 6.000000000000D+00
   -1.524031640625D+04 2.689031600952D+00 2.793967723846D-09 0.000000000000D+00
14 21  7 25  2 15  0.0 6.685964763165D-05 0.000000000000D+00 7.200000000000D+03
   -1.109190966797D+04 3.733835220337D-01-0.000000000000D+00 0.000000000000D+00
    1.052593994141D+04-2.772038459778D+00-0.000000000000D+00-7.000000000000D+00
   -2.039270849609D+04-1.634263038635D+00 2.793967723846D-09 0.000000000000D+00
16 21  7 25  2 15  0.0-1.843646168709D-05 0.000000000000D+00 7.200000000000D+03
    3.522115234375D+03-1.765155792236D-02-2.793967723846D-09 0.000000000000D+00
    2.263411035156D+04 1.554923057556D+00-9.313225746155D-10-1.000000000000D+00
    1.134012841797D+04-3.081941604614D+00-0.000000000000D+00 0.000000000000D+00
19 21  7 25  2 15  0.0-1.528067514300D-04-9.094947017729D-13 7.200000000000D+03
    1.072110351562D+04-1.520282745361D+00-1.862645149231D-09 0.000000000000D+00
    1.733934863281D+04-1.467602729797D+00-9.313225746155D-10 3.000000000000D+00
    1.533080566406D+04 2.720673561096D+00-9.313225746155D-10 0.000000000000D+00
18 21  7 25  2 15  0.0 8.458364754915D-05 9.094947017729D-13 7.380000000000D+03
   -3.357636230469D+03-2.490299224854D+00-3.725290298462D-09 0.000000000000D+00
    1.044570410156D+04-1.940210342407D+00 9.313225746155D-10-3.000000000000D+00
    2.303049218750D+04 5.212202072144D-01-0.000000000000D+00 0.000000000000D+00
 5 21  7 25  2 15  0.0 7.594376802444D-05 9.094947017729D-13 8.070000000000D+03
    2.178269042969D+03-2.898566246033D+00 9.313225746155D-10 0.000000000000D+00
    1.076716210938D+04 1.245656967163D+00-1.862645149231D-09 1.000000000000D+00
   -2.301102783203D+04 3.063001632690D-01 1.862645149231D-09 0.000000000000D+00
 3 21  7 25  2 45  0.0 4.012510180473D-05 9.094947017729D-13 9.000000000000D+03
   -2.259581445312D+04 9.375715255737D-01-4.656612873077D-09 0.000000000000D+00
    9.401288085938D+03-3.711061477661D-01 2.793967723846D-09 5.000000000000D+00
    7.327472656250D+03 3.382400512695D+00 1.862645149231D-09 0.000000000000D+00
 5 21  7 25  2 45  0.0 7.594563066959D-05 9.094947017729D-13 9.000000000000D+03
   -2.731367187500D+03-2.515271186829D+00-0.000000000000D+00 0.000000000000D+00
    1.331815332031D+04 1.557638168335D+00-9.313225746155D-10 1.000000000000D+00
   -2.157656787109D+04 1.277122497559D+00 2.793967723846D-09 0.000000000000D+00
 4 21  7 25  2 45  0.0 9.731482714415D-05 1.818989403546D-12 9.000000000000D+03
   -1.748634570312D+04-1.082888603210D+00-2.793967723846D-09 0.000000000000D+00
    1.571759863281D+04 8.340959548950D-01 9.313225746155D-10 6.000000000000D+00
   -9.872658691406D+03 3.236194610596D+00 2.793967723846D-09 0.000000000000D+00
15 21  7 25  2 45  0.0 1.025022938848D-04-0.000000000000D+00 9.000000000000D+03
   -5.841446289062D+03 9.781932830811D-02-1.862645149231D-09 0.000000000000D+00
    2.119164404297D+04-1.774277687073D+00-0.000000000000D+00 0.000000000000D+00
   -1.291047753906D+04-2.951090812683D+00 2.793967723846D-09 0.000000000000D+00
16 21  7 25  2 45  0.0-1.843646168709D-05 0.000000000000D+00 9.000000000000D+03
    3.689018066406D+03 1.662778854370D-01-3.725290298462D-09 0.000000000000D+00
    2.471392285156D+04 7.365159988403D-01-9.313225746155D-10-1.000000000000D+00
    5.428228515625D+03-3.444393157959D+00 9.313225746155D-10 0.000000000000D+00
19 21  7 25  2 45  0.0-1.528086140752D-04-9.094947017729D-13 9.000000000000D+03
    7.335072265625D+03-2.224890708923D+00-2.793967723846D-09 0.000000000000D+00
    1.461626269531D+04-1.511832237244D+00-0.000000000000D+00 3.000000000000D+00
    1.957197705078D+04 1.961111068726D+00-9.313225746155D-10 0.000000000000D+00
 9 21  7 25  2 45  0.0 4.646368324757D-06 1.818989403546D-12 9.540000000000D+03
    9.809818847656D+03 1.326656341553D-01-2.793967723846D-09 0.000000000000D+00
    1.376714257812D+04 2.607756614685D+00-0.000000000000D+00-2.000000000000D+00
    1.909372851562D+04-1.957409858704D+00-9.313225746155D-10 0.000000000000D+00
 3 21  7 25  3 15  0.0 4.012789577246D-05 9.094947017729D-13 1.080000000000D+04
   -2.038208203125D+04 1.482419967651D+00-3.725290298462D-09 0.000000000000D+00
    8.190553222656D+03-9.912528991699D-01 3.725290298462D-09 5.000000000000D+00
    1.305556884766D+04 2.941082000732D+00 9.313225746155D-10 0.000000000000D+00
 5 21  7 25  3 15  0.0 7.594656199217D-05 9.094947017729D-13 1.080000000000D+04
   -6.752802246094D+03-1.926468849182D+00-1.862645149231D-09 0.000000000000D+00
    1.624037402344D+04 1.647042274475D+00 0.000000000000D+00 1.000000000000D+00
   -1.847304394531D+04 2.148779869080D+00 2.793967723846D-09 0.000000000000D+00
 4 21  7 25  3 15  0.0 9.731762111187D-05 1.818989403546D-12 1.080000000000D+04
   -1.871670263672D+04-2.936840057373D-01-3.725290298462D-09 0.000000000000D+00
    1.692128369141D+04 4.620103836060D-01 2.793967723846D-09 6.000000000000D+00
   -3.740859863281D+03 3.532609939575D+00 2.793967723846D-09 0.000000000000D+00
 9 21  7 25  3 15  0.0 4.649162292480D-06 1.818989403546D-12 1.080000000000D+04
    1.031933740234D+04 4.036293029785D-01-2.793967723846D-09 0.000000000000D+00
    1.794234521484D+04 1.995781898499D+00-0.000000000000D+00-2.000000000000D+00
    1.487697998047D+04-2.697583198547D+00-0.000000000000D+00 0.000000000000D+00
15 21  7 25  3 15  0.0 1.025013625622D-04-0.000000000000D+00 1.080000000000D+04
   -5.962034667969D+03-2.590513229370D-01-9.313225746155D-10 0.000000000000D+00
    1.739168554688D+04-2.410874366760D+00-0.000000000000D+00 0.000000000000D+00
   -1.765356933594D+04-2.284674644470D+00 2.793967723846D-09 0.000000000000D+00
16 21  7 25  3 15  0.0-1.843553036451D-05 0.000000000000D+00 1.080000000000D+04
    3.979458007812D+03 1.162395477295D-01-3.725290298462D-09 0.000000000000D+00
    2.524881738281D+04-1.428518295288D-01-0.000000000000D+00-1.000000000000D+00
   -9.004799804688D+02-3.542176246643D+00 9.313225746155D-10 0.000000000000D+00
19 21  7 25  3 15  0.0-1.528114080429D-04-9.094947017729D-13 1.092000000000D+04
    2.806190917969D+03-2.772404670715D+00-3.725290298462D-09 0.000000000000D+00
    1.205174951172D+04-1.299190521240D+00 9.313225746155D-10 3.000000000000D+00
    2.229947802734D+04 1.049733161926D+00-9.313225746155D-10 0.000000000000D+00
 9 21  7 25  3 45  0.0 4.651956260204D-06 1.818989403546D-12 1.260000000000D+04
    1.113688720703D+04 4.658813476562D-01-3.725290298462D-09 0.000000000000D+00
    2.085163378906D+04 1.217430114746D+00-0.000000000000D+00-2.000000000000D+00
    9.507623535156D+03-3.229635238647D+00 0.000000000000D+00 0.000000000000D+00
 5 21  7 25  3 45  0.0 7.594749331474D-05 9.094947017729D-13 1.260000000000D+04
   -9.603525390625D+03-1.232881546021D+00-1.862645149231D-09 0.000000000000D+00
    1.908528173828D+04 1.467587471008D+00 9.313225746155D-10 1.000000000000D+00
   -1.394110302734D+04 2.853968620300D+00 2.793967723846D-09 0.000000000000D+00
 4 21  7 25  3 45  0.0 9.732134640217D-05 1.818989403546D-12 1.260000000000D+04
   -1.861021875000D+04 3.852481842041D-01-3.725290298462D-09 0.000000000000D+00
    1.724726416016D+04-1.313409805298D-01 3.725290298462D-09 6.000000000000D+00
    2.680317382812D+03 3.555706977844D+00 2.793967723846D-09 0.000000000000D+00
15 21  7 25  3 45  0.0 1.025004312396D-04-9.094947017729D-13 1.260000000000D+04
   -6.845565917969D+03-7.343549728394D-01-0.000000000000D+00 0.000000000000D+00
    1.266701171875D+04-2.791287422180D+00-0.000000000000D+00 0.000000000000D+00
   -2.102866113281D+04-1.440985679626D+00 2.793967723846D-09 0.000000000000D+00
16 21  7 25  3 45  0.0-1.843459904194D-05 0.000000000000D+00 1.260000000000D+04
    3.967342773438D+03-1.659069061279D-01-2.793967723846D-09 0.000000000000D+00
    2.423155029297D+04-9.693841934204D-01-0.000000000000D+00-1.000000000000D+00
   -7.160127441406D+03-3.368183135986D+00 1.862645149231D-09 0.000000000000D+00
 9 21  7 25  4 15  0.0 4.662200808525D-06 1.818989403546D-12 1.440000000000D+04
    1.185022558594D+04 2.858200073242D-01-3.725290298462D-09 0.000000000000D+00
    2.228918212891D+04 3.794670104980D-01 0.000000000000D+00-2.000000000000D+00
    3.400735839844D+03-3.511608123779D+00 9.313225746155D-10 0.000000000000D+00
 5 21  7 25  4 15  0.0 7.594935595989D-05 9.094947017729D-13 1.440000000000D+04
   -1.119644042969D+04-5.478601455688D-01-2.793967723846D-09 0.000000000000D+00
    2.136040185547D+04 1.017535209656D+00 2.793967723846D-09 1.000000000000D+00
   -8.331596191406D+03 3.338334083557D+00 2.793967723846D-09 0.000000000000D+00
 4 21  7 25  4 15  0.0 9.732414036989D-05 1.818989403546D-12 1.440000000000D+04
   -1.745036865234D+04 8.644781112671D-01-2.793967723846D-09 0.000000000000D+00
    1.636129248047D+04-8.690338134766D-01 4.656612873077D-09 6.000000000000D+00
    8.894452148438D+03 3.304130554199D+00 1.862645149231D-09 0.000000000000D+00
15 21  7 25  4 15  0.0 1.024994999170D-04-9.094947017729D-13 1.440000000000D+04
   -8.615724121094D+03-1.226148605347D+00 0.000000000000D+00 0.000000000000D+00
    7.522383300781D+03-2.874373435974D+00-0.000000000000D+00 0.000000000000D+00
   -2.277385009766D+04-4.854793548584D-01 2.793967723846D-09 0.000000000000D+00
